IONOSFERA-M 4           
1 64877U 25155B   26194.46518957  .00000005  00000+0  21869-4 0  9991
2 64877  98.6038 155.6279 0001794 101.5373 258.6006 14.21493065 50135
MICROCARB               
1 64899U 25156A   26193.76512663  .00000278  00000+0  51100-4 0  9999
2 64899  98.0075 270.5014 0017429 178.3822 181.7446 14.72883584 51737
CO3D 3                  
1 64900U 25156B   26194.51673304  .00002017  00000+0  96341-4 0  9995
2 64900  97.4335 272.8312 0001760  93.1238 267.0198 15.20183285 53531
CO3D 4                  
1 64901U 25156C   26194.51690478  .00000707  00000+0  35766-4 0  9995
2 64901  97.4335 272.8313 0001558 156.7832 203.3473 15.20202228 53532
CO3D 2                  
1 64902U 25156D   26194.48355479  .00002365  00000+0  11237-3 0  9999
2 64902  97.4338 272.6971 0001261  87.6150 272.5229 15.20193375 53528
CO3D 1                  
1 64903U 25156E   26194.48370830  .00002513  00000+0  11920-3 0  9992
2 64903  97.4337 272.6973 0001284  99.3379 260.8001 15.20193122 53526
PRSC-S1                 
1 65055U 25164A   26194.31711872  .00002244  00000+0  16051-3 0  9998
2 65055  41.1295 140.6256 0006404 185.9768 174.0970 15.06625893 52377
SENTINEL-6B             
1 66514U 25264A   26193.92896572 -.00000059  00000+0  10665-4 0  9996
2 66514  66.0413  81.7138 0007871 268.7841  91.2272 12.80930082 30460
CAS500-3                
1 66655U 25274F   26194.36763281  .00000632  00000+0  74070-4 0  9998
2 66655  97.7437 121.8233 0006343  43.0711 317.1001 14.88381262 34046
CSG-3                   
1 67304U 26001A   26194.52815792  .00000135  00000+0  23485-4 0  9994
2 67304  97.8894  17.7492 0001518  93.3222 266.8165 14.82151371 28369
PRSC-E03                
1 68835U 26092A   26194.49835016  .00001381  00000+0  98236-4 0  9991
2 68835  38.0017 294.5146 0004791 240.6982 119.3301 15.06804629 11926
CAS500-2                
1 69013U 26100AK  26194.14293857  .00003624  00000+0  16699-3 0  9997
2 69013  97.3875  91.5067 0007902 300.8492  59.1966 15.20887700 10759
