OBJECT_NAME,OBJECT_ID,EPOCH,MEAN_MOTION,ECCENTRICITY,INCLINATION,RA_OF_ASC_NODE,ARG_OF_PERICENTER,MEAN_ANOMALY,EPHEMERIS_TYPE,CLASSIFICATION_TYPE,NORAD_CAT_ID,ELEMENT_SET_NO,REV_AT_EPOCH,BSTAR,MEAN_MOTION_DOT,MEAN_MOTION_DDOT
IONOSFERA-M 4,2025-155B,2026-07-13T11:09:52.378848,14.21493065,.0001794,98.6038,155.6279,101.5373,258.6006,0,U,64877,999,5013,.21869E-4,.5E-7,0
MICROCARB,2025-156A,2026-07-12T18:21:46.940832,14.72883584,.00174294,98.0075,270.5014,178.3822,181.7446,0,U,64899,999,5173,.51099856E-4,.278E-5,0
CO3D 3,2025-156B,2026-07-13T12:24:05.734656,15.20183285,.000176,97.4335,272.8312,93.1238,267.0198,0,U,64900,999,5353,.96341E-4,.2017E-4,0
CO3D 4,2025-156C,2026-07-13T12:24:20.572992,15.20202228,.0001558,97.4335,272.8313,156.7832,203.3473,0,U,64901,999,5353,.35766E-4,.707E-5,0
CO3D 2,2025-156D,2026-07-13T11:36:19.133856,15.20193375,.0001261,97.4338,272.6971,87.6150,272.5229,0,U,64902,999,5352,.11237E-3,.2365E-4,0
CO3D 1,2025-156E,2026-07-13T11:36:32.397120,15.20193122,.0001284,97.4337,272.6973,99.3379,260.8001,0,U,64903,999,5352,.1192E-3,.2513E-4,0
PRSC-S1,2025-164A,2026-07-13T07:36:39.057408,15.06625893,.0006404,41.1295,140.6256,185.9768,174.0970,0,U,65055,999,5237,.16051E-3,.2244E-4,0
SENTINEL-6B,2025-264A,2026-07-12T22:17:42.638208,12.80930082,.00078718,66.0413,81.7138,268.7841,91.2272,0,U,66514,999,3046,.10664884E-4,-.59E-6,0
CAS500-3,2025-274F,2026-07-13T08:49:23.474784,14.88381262,.0006343,97.7437,121.8233,43.0711,317.1001,0,U,66655,999,3404,.7407E-4,.632E-5,0
CSG-3,2026-001A,2026-07-13T12:40:32.844288,14.82151371,.0001518,97.8894,17.7492,93.3222,266.8165,0,U,67304,999,2836,.23485E-4,.135E-5,0
PRSC-E03,2026-092A,2026-07-13T11:57:37.453824,15.06804629,.0004791,38.0017,294.5146,240.6982,119.3301,0,U,68835,999,1192,.98236E-4,.1381E-4,0
CAS500-2,2026-100AK,2026-07-13T03:25:49.892448,15.20887700,.00079023,97.3875,91.5067,300.8492,59.1966,0,U,69013,999,1075,.16698882E-3,.3624E-4,0
